{"type": "FeatureCollection", "features": [ {"type": "Feature", "properties": {"norad_id": 33841, "name": "COSMOS 2251 DEB", "group": "cosmos-2251-debris", "lat": 15.216613243280808, "lon": 68.4331045027511, "alt_km": 780.6013913760316, "timestamp": "2025-12-26T09:30:54.032704+00:00", "meta": {"OBJECT_NAME": "COSMOS 2251 DEB", "OBJECT_ID": "1993-036CJ", "EPOCH": "2025-12-26T04:27:44.479008", "MEAN_MOTION": 14.37878703, "ECCENTRICITY": 0.0021065, "INCLINATION": 74.0372, "RA_OF_ASC_NODE": 253.2859, "ARG_OF_PERICENTER": 331.2395, "MEAN_ANOMALY": 183.5381, "EPHEMERIS_TYPE": 0, "CLASSIFICATION_TYPE": "U", "NORAD_CAT_ID": 33841, "ELEMENT_SET_NO": 999, "REV_AT_EPOCH": 88307, "BSTAR": 0.00019795, "MEAN_MOTION_DOT": 5.72e-06, "MEAN_MOTION_DDOT": 0}, "tle": {"line1": "1 33841U 93036CJ  25360.18593147  .00000572  00000+0  19795-3 0  9991", "line2": "2 33841  74.0372 253.2859 0021065 331.2395 183.5381 14.37878703883071"}}, "geometry": {"type": "Point", "coordinates": [68.4331045027511, 15.216613243280808]}}, {"type": "Feature", "properties": {"norad_id": 33842, "name": "COSMOS 2251 DEB", "group": "cosmos-2251-debris", "lat": -59.35594832811829, "lon": 165.40010421975234, "alt_km": 722.3864267096178, "timestamp": "2025-12-26T09:30:54.032715+00:00", "meta": {"OBJECT_NAME": "COSMOS 2251 DEB", "OBJECT_ID": "1993-036CK", "EPOCH": "2025-12-25T22:09:25.799328", "MEAN_MOTION": 14.42721361, "ECCENTRICITY": 0.0047603, "INCLINATION": 74.0315, "RA_OF_ASC_NODE": 195.1808, "ARG_OF_PERICENTER": 299.9078, "MEAN_ANOMALY": 59.7354, "EPHEMERIS_TYPE": 0, "CLASSIFICATION_TYPE": "U", "NORAD_CAT_ID": 33842, "ELEMENT_SET_NO": 999, "REV_AT_EPOCH": 88527, "BSTAR": 0.00025367, "MEAN_MOTION_DOT": 8.29e-06, "MEAN_MOTION_DDOT": 0}, "tle": {"line1": "1 33842U 93036CK  25359.92321527  .00000829  00000+0  25367-3 0  9990", "line2": "2 33842  74.0315 195.1808 0047603 299.9078  59.7354 14.42721361885272"}}, "geometry": {"type": "Point", "coordinates": [165.40010421975234, -59.35594832811829]}}, {"type": "Feature", "properties": {"norad_id": 33844, "name": "COSMOS 2251 DEB", "group": "cosmos-2251-debris", "lat": 31.978766030878027, "lon": -162.4286875910712, "alt_km": 783.3514498859076, "timestamp": "2025-12-26T09:30:54.032726+00:00", "meta": {"OBJECT_NAME": "COSMOS 2251 DEB", "OBJECT_ID": "1993-036CM", "EPOCH": "2025-12-26T02:17:01.879296", "MEAN_MOTION": 14.33742098, "ECCENTRICITY": 0.0047239, "INCLINATION": 74.0664, "RA_OF_ASC_NODE": 28.3956, "ARG_OF_PERICENTER": 46.0817, "MEAN_ANOMALY": 345.3582, "EPHEMERIS_TYPE": 0, "CLASSIFICATION_TYPE": "U", "NORAD_CAT_ID": 33844, "ELEMENT_SET_NO": 999, "REV_AT_EPOCH": 87917, "BSTAR": 0.0003404, "MEAN_MOTION_DOT": 9.32e-06, "MEAN_MOTION_DDOT": 0}, "tle": {"line1": "1 33844U 93036CM  25360.09516064  .00000932  00000+0  34040-3 0  9997", "line2": "2 33844  74.0664  28.3956 0047239  46.0817 345.3582 14.33742098879178"}}, "geometry": {"type": "Point", "coordinates": [-162.4286875910712, 31.978766030878027]}}, {"type": "Feature", "properties": {"norad_id": 33848, "name": "COSMOS 2251 DEB", "group": "cosmos-2251-debris", "lat": 60.17525492409739, "lon": 122.26834298727208, "alt_km": 739.1455624109567, "timestamp": "2025-12-26T09:30:54.032736+00:00", "meta": {"OBJECT_NAME": "COSMOS 2251 DEB", "OBJECT_ID": "1993-036CR", "EPOCH": "2025-12-26T00:58:14.174112", "MEAN_MOTION": 14.44154679, "ECCENTRICITY": 0.0041975, "INCLINATION": 74.0325, "RA_OF_ASC_NODE": 332.8934, "ARG_OF_PERICENTER": 24.9467, "MEAN_ANOMALY": 39.8818, "EPHEMERIS_TYPE": 0, "CLASSIFICATION_TYPE": "U", "NORAD_CAT_ID": 33848, "ELEMENT_SET_NO": 999, "REV_AT_EPOCH": 88023, "BSTAR": 0.0011917, "MEAN_MOTION_DOT": 4.106e-05, "MEAN_MOTION_DDOT": 0}, "tle": {"line1": "1 33848U 93036CR  25360.04044183  .00004106  00000+0  11917-2 0  9998", "line2": "2 33848  74.0325 332.8934 0041975  24.9467  39.8818 14.44154679880232"}}, "geometry": {"type": "Point", "coordinates": [122.26834298727208, 60.17525492409739]}}, {"type": "Feature", "properties": {"norad_id": 33892, "name": "COSMOS 2251 DEB", "group": "cosmos-2251-debris", "lat": 70.66554946856226, "lon": -158.79158987527643, "alt_km": 726.4032711001328, "timestamp": "2025-12-26T09:30:54.032747+00:00", "meta": {"OBJECT_NAME": "COSMOS 2251 DEB", "OBJECT_ID": "1993-036CV", "EPOCH": "2025-12-25T08:03:07.750368", "MEAN_MOTION": 14.23378094, "ECCENTRICITY": 0.0112112, "INCLINATION": 73.8025, "RA_OF_ASC_NODE": 79.0793, "ARG_OF_PERICENTER": 107.8295, "MEAN_ANOMALY": 318.5772, "EPHEMERIS_TYPE": 0, "CLASSIFICATION_TYPE": "U", "NORAD_CAT_ID": 33892, "ELEMENT_SET_NO": 999, "REV_AT_EPOCH": 87134, "BSTAR": 0.00060646, "MEAN_MOTION_DOT": 1.442e-05, "MEAN_MOTION_DDOT": 0}, "tle": {"line1": "1 33892U 93036CV  25359.33550637  .00001442  00000+0  60646-3 0  9997", "line2": "2 33892  73.8025  79.0793 0112112 107.8295 318.5772 14.23378094871344"}}, "geometry": {"type": "Point", "coordinates": [-158.79158987527643, 70.66554946856226]}}, {"type": "Feature", "properties": {"norad_id": 33894, "name": "COSMOS 2251 DEB", "group": "cosmos-2251-debris", "lat": 40.06050429473693, "lon": -17.873184377793127, "alt_km": 1573.2572270874107, "timestamp": "2025-12-26T09:30:54.032757+00:00", "meta": {"OBJECT_NAME": "COSMOS 2251 DEB", "OBJECT_ID": "1993-036CX", "EPOCH": "2025-12-26T00:12:01.577376", "MEAN_MOTION": 13.21328961, "ECCENTRICITY": 0.0578549, "INCLINATION": 73.7663, "RA_OF_ASC_NODE": 328.5462, "ARG_OF_PERICENTER": 246.2079, "MEAN_ANOMALY": 107.7341, "EPHEMERIS_TYPE": 0, "CLASSIFICATION_TYPE": "U", "NORAD_CAT_ID": 33894, "ELEMENT_SET_NO": 999, "REV_AT_EPOCH": 80883, "BSTAR": 0.00057834, "MEAN_MOTION_DOT": 5.51e-06, "MEAN_MOTION_DDOT": 0}, "tle": {"line1": "1 33894U 93036CX  25360.00835159  .00000551  00000+0  57834-3 0  9995", "line2": "2 33894  73.7663 328.5462 0578549 246.2079 107.7341 13.21328961808835"}}, "geometry": {"type": "Point", "coordinates": [-17.873184377793127, 40.06050429473693]}}, {"type": "Feature", "properties": {"norad_id": 33896, "name": "COSMOS 2251 DEB", "group": "cosmos-2251-debris", "lat": -39.38035631728124, "lon": 118.05332907623321, "alt_km": 745.2927281758421, "timestamp": "2025-12-26T09:30:54.032768+00:00", "meta": {"OBJECT_NAME": "COSMOS 2251 DEB", "OBJECT_ID": "1993-036CZ", "EPOCH": "2025-12-26T01:48:27.628128", "MEAN_MOTION": 14.19070068, "ECCENTRICITY": 0.0127242, "INCLINATION": 73.7666, "RA_OF_ASC_NODE": 132.4723, "ARG_OF_PERICENTER": 306.0236, "MEAN_ANOMALY": 172.4194, "EPHEMERIS_TYPE": 0, "CLASSIFICATION_TYPE": "U", "NORAD_CAT_ID": 33896, "ELEMENT_SET_NO": 999, "REV_AT_EPOCH": 86929, "BSTAR": 0.00065854, "MEAN_MOTION_DOT": 1.464e-05, "MEAN_MOTION_DDOT": 0}, "tle": {"line1": "1 33896U 93036CZ  25360.07531977  .00001464  00000+0  65854-3 0  9990", "line2": "2 33896  73.7666 132.4723 0127242 306.0236 172.4194 14.19070068869294"}}, "geometry": {"type": "Point", "coordinates": [118.05332907623321, -39.38035631728124]}}, {"type": "Feature", "properties": {"norad_id": 33899, "name": "COSMOS 2251 DEB", "group": "cosmos-2251-debris", "lat": -64.91648136503035, "lon": -82.70832043568223, "alt_km": 722.2181589238207, "timestamp": "2025-12-26T09:30:54.032778+00:00", "meta": {"OBJECT_NAME": "COSMOS 2251 DEB", "OBJECT_ID": "1993-036DC", "EPOCH": "2025-12-26T03:33:04.569120", "MEAN_MOTION": 14.61298709, "ECCENTRICITY": 0.0055924, "INCLINATION": 74.0531, "RA_OF_ASC_NODE": 60.1147, "ARG_OF_PERICENTER": 118.7976, "MEAN_ANOMALY": 264.3878, "EPHEMERIS_TYPE": 0, "CLASSIFICATION_TYPE": "U", "NORAD_CAT_ID": 33899, "ELEMENT_SET_NO": 999, "REV_AT_EPOCH": 89035, "BSTAR": 0.00074477, "MEAN_MOTION_DOT": 3.731e-05, "MEAN_MOTION_DDOT": 0}, "tle": {"line1": "1 33899U 93036DC  25360.14796955  .00003731  00000+0  74477-3 0  9990", "line2": "2 33899  74.0531  60.1147 0055924 118.7976 264.3878 14.61298709890357"}}, "geometry": {"type": "Point", "coordinates": [-82.70832043568223, -64.91648136503035]}}, {"type": "Feature", "properties": {"norad_id": 33900, "name": "COSMOS 2251 DEB", "group": "cosmos-2251-debris", "lat": 34.0855750306839, "lon": 142.66111457966642, "alt_km": 665.4742341114843, "timestamp": "2025-12-26T09:30:54.032788+00:00", "meta": {"OBJECT_NAME": "COSMOS 2251 DEB", "OBJECT_ID": "1993-036DD", "EPOCH": "2025-12-25T08:50:54.447072", "MEAN_MOTION": 14.58390981, "ECCENTRICITY": 0.0046325, "INCLINATION": 74.0196, "RA_OF_ASC_NODE": 335.7997, "ARG_OF_PERICENTER": 124.1586, "MEAN_ANOMALY": 26.0739, "EPHEMERIS_TYPE": 0, "CLASSIFICATION_TYPE": "U", "NORAD_CAT_ID": 33900, "ELEMENT_SET_NO": 999, "REV_AT_EPOCH": 89220, "BSTAR": 0.00043405, "MEAN_MOTION_DOT": 2.012e-05, "MEAN_MOTION_DDOT": 0}, "tle": {"line1": "1 33900U 93036DD  25359.36868573  .00002012  00000+0  43405-3 0  9999", "line2": "2 33900  74.0196 335.7997 0046325 124.1586  26.0739 14.58390981892200"}}, "geometry": {"type": "Point", "coordinates": [142.66111457966642, 34.0855750306839]}}, {"type": "Feature", "properties": {"norad_id": 33901, "name": "COSMOS 2251 DEB", "group": "cosmos-2251-debris", "lat": 66.54928414256406, "lon": 158.1875225522215, "alt_km": 491.9240549677106, "timestamp": "2025-12-26T09:30:54.032799+00:00", "meta": {"OBJECT_NAME": "COSMOS 2251 DEB", "OBJECT_ID": "1993-036DE", "EPOCH": "2025-12-26T02:42:53.396064", "MEAN_MOTION": 15.17320274, "ECCENTRICITY": 0.0029687, "INCLINATION": 73.7741, "RA_OF_ASC_NODE": 20.9586, "ARG_OF_PERICENTER": 150.3927, "MEAN_ANOMALY": 209.8956, "EPHEMERIS_TYPE": 0, "CLASSIFICATION_TYPE": "U", "NORAD_CAT_ID": 33901, "ELEMENT_SET_NO": 999, "REV_AT_EPOCH": 89716, "BSTAR": 0.002447, "MEAN_MOTION_DOT": 0.00049663, "MEAN_MOTION_DDOT": 0}, "tle": {"line1": "1 33901U 93036DE  25360.11311801  .00049663  00000+0  24470-2 0  9995", "line2": "2 33901  73.7741  20.9586 0029687 150.3927 209.8956 15.17320274897168"}}, "geometry": {"type": "Point", "coordinates": [158.1875225522215, 66.54928414256406]}}]}